{
    "links": {
        "self": "http://www.neowsapp.com/rest/v1/neo/3595645?api_key=iIulBulltgU6a56xZRHN4H3l9WmuAYTsLGpBGhQ2"
    },
    "id": "3595645",
    "neo_reference_id": "3595645",
    "name": "(2012 AW10)",
    "designation": "2012 AW10",
    "nasa_jpl_url": "http://ssd.jpl.nasa.gov/sbdb.cgi?sstr=3595645",
    "absolute_magnitude_h": 25.7,
    "estimated_diameter": {
        "kilometers": {
            "estimated_diameter_min": 0.0192555078,
            "estimated_diameter_max": 0.0430566244
        },
        "meters": {
            "estimated_diameter_min": 19.2555078188,
            "estimated_diameter_max": 43.0566244241
        },
        "miles": {
            "estimated_diameter_min": 0.0119648141,
            "estimated_diameter_max": 0.0267541378
        },
        "feet": {
            "estimated_diameter_min": 63.1742402722,
            "estimated_diameter_max": 141.2618956756
        }
    },
    "is_potentially_hazardous_asteroid": false,
    "close_approach_data": [
        {
            "close_approach_date": "2012-01-09",
            "close_approach_date_full": "2012-Jan-09 15:36",
            "epoch_date_close_approach": 1326123360000,
            "relative_velocity": {
                "kilometers_per_second": "10.9462538309",
                "kilometers_per_hour": "39406.513791249",
                "miles_per_hour": "24485.6751943458"
            },
            "miss_distance": {
                "astronomical": "0.0087921675",
                "lunar": "3.4201531575",
                "kilometers": "1315289.530683225",
                "miles": "817283.016449505"
            },
            "orbiting_body": "Earth"
        },
        {
            "close_approach_date": "2012-01-10",
            "close_approach_date_full": "2012-Jan-10 01:41",
            "epoch_date_close_approach": 1326159660000,
            "relative_velocity": {
                "kilometers_per_second": "10.9404851785",
                "kilometers_per_hour": "39385.7466425302",
                "miles_per_hour": "24472.7712957433"
            },
            "miss_distance": {
                "astronomical": "0.0078764528",
                "lunar": "3.0639401392",
                "kilometers": "1178300.562035536",
                "miles": "732162.0184449568"
            },
            "orbiting_body": "Moon"
        },
        {
            "close_approach_date": "2013-08-19",
            "close_approach_date_full": "2013-Aug-19 15:33",
            "epoch_date_close_approach": 1376926380000,
            "relative_velocity": {
                "kilometers_per_second": "21.4729848475",
                "kilometers_per_hour": "77302.7454510169",
                "miles_per_hour": "48032.9198053833"
            },
            "miss_distance": {
                "astronomical": "0.3869002966",
                "lunar": "150.5042153774",
                "kilometers": "57879460.273728242",
                "miles": "35964628.9120920596"
            },
            "orbiting_body": "Earth"
        }
    ],
    "orbital_data": {
        "orbit_id": "7",
        "orbit_determination_date": "2017-04-06 08:51:30",
        "first_observation_date": "2012-01-14",
        "last_observation_date": "2012-01-16",
        "data_arc_in_days": 2,
        "observations_used": 29,
        "orbit_uncertainty": "8",
        "minimum_orbit_intersection": ".00792228",
        "jupiter_tisserand_invariant": "4.404",
        "epoch_osculation": "2455941.5",
        "eccentricity": ".436550084589838",
        "semi_major_axis": "1.511757964909071",
        "inclination": "7.387710360465111",
        "ascending_node_longitude": "112.270737764589",
        "orbital_period": "678.9250375952282",
        "perihelion_distance": ".8517998974486546",
        "perihelion_argument": "300.1128795630656",
        "aphelion_distance": "2.171716032369487",
        "perihelion_time": "2455894.597830891129",
        "mean_anomaly": "24.86987508812451",
        "mean_motion": ".5302499982547856",
        "equinox": "J2000",
        "orbit_class": {
            "orbit_class_type": "APO",
            "orbit_class_description": "Near-Earth asteroid orbits which cross the Earth’s orbit similar to that of 1862 Apollo",
            "orbit_class_range": "a (semi-major axis) > 1.0 AU; q (perihelion) < 1.017 AU"
        }
    },
    "is_sentry_object": false
}